[{"OBJECT_NAME":"HAWK-8C","OBJECT_ID":"2024-066H","EPOCH":"2026-03-09T11:22:19.381152","MEAN_MOTION":14.98770227,"ECCENTRICITY":0.00039352,"INCLINATION":45.6068,"RA_OF_ASC_NODE":72.8656,"ARG_OF_PERICENTER":260.2975,"MEAN_ANOMALY":99.7462,"EPHEMERIS_TYPE":0,"CLASSIFICATION_TYPE":"U","NORAD_CAT_ID":59449,"ELEMENT_SET_NO":999,"REV_AT_EPOCH":10486,"BSTAR":0.00021518384,"MEAN_MOTION_DOT":2.4e-5,"MEAN_MOTION_DDOT":0},{"OBJECT_NAME":"STARLINK-35957","OBJECT_ID":"2025-280C","EPOCH":"2026-03-09T22:09:10.953216","MEAN_MOTION":14.98331638,"ECCENTRICITY":0.00018765,"INCLINATION":70.0036,"RA_OF_ASC_NODE":333.7557,"ARG_OF_PERICENTER":245.3826,"MEAN_ANOMALY":114.7138,"EPHEMERIS_TYPE":0,"CLASSIFICATION_TYPE":"U","NORAD_CAT_ID":66823,"ELEMENT_SET_NO":999,"REV_AT_EPOCH":1611,"BSTAR":0.00065365909,"MEAN_MOTION_DOT":7.715e-5,"MEAN_MOTION_DDOT":0}]
